SL-16 R/B               
1 24298U 96051B   26157.76250312  .00000132  00000+0  97896-4 0  9991
2 24298  70.7634 346.7124 0014570 352.8339   7.2570 14.12442526534229
ORBVIEW 2 (SEASTAR)     
1 24883U 97037A   26158.19236785  .00000298  00000+0  11983-3 0  9997
2 24883  98.8681 324.9351 0002879 137.3069 222.8340 14.35548493521318
SL-16 R/B               
1 25400U 98043G   26158.11920046  .00000055  00000+0  42047-4 0  9990
2 25400  98.8359 112.1921 0010834 112.6352 247.5974 14.26066905451735
SL-16 R/B               
1 25407U 98045B   26158.27673602  .00000087  00000+0  67900-4 0  9999
2 25407  71.0120 353.1723 0009533 253.4534 106.5543 14.16204543439786
ISS (ZARYA)             
1 25544U 98067A   26158.32089647  .00008946  00000+0  16649-3 0  9996
2 25544  51.6340 348.9335 0006961 143.5924 216.5539 15.49651405570223
CZ-4B R/B               
1 25732U 99025C   26158.39273630  .00000053  00000+0  46115-4 0  9997
2 25732  98.6488 200.4774 0038265  87.0003 284.2739 14.18281862400886
OKEAN-O                 
1 25860U 99039A   26158.41216671  .00000750  00000+0  10492-3 0  9991
2 25860  97.9319 217.3219 0001843  78.8725 281.2694 14.80456177447661
SL-16 R/B               
1 25861U 99039B   26158.17294926  .00000589  00000+0  81259-4 0  9994
2 25861  97.9841 217.0640 0014054 332.0055  28.0401 14.81835746450117
DELTA 2 R/B             
1 25876U 99041E   26158.12466285  .00000758  00000+0  15964-3 0  9994
2 25876  51.7662 303.9918 0500965 252.2696 102.2970 14.11997656375664
HELIOS 1B               
1 25977U 99064A   26158.49528044  .00001782  00000+0  20061-3 0  9995
2 25977  98.1623  63.3545 0002318 105.5165 254.6307 14.87982214698617
TERRA                   
1 25994U 99068A   26158.42036111  .00000461  00000+0  10279-3 0  9993
2 25994  97.9460 208.3535 0000899 238.3915 132.2520 14.61095687408182
SL-16 R/B               
1 26070U 00006B   26158.03278693 -.00000173  00000+0 -63810-4 0  9995
2 26070  71.0034 269.9757 0015027  39.0990 321.1216 14.15836990361206
TITAN 4B R/B            
1 26474U 00047B   26158.45671487  .00003528  00000+0  21889-3 0  9996
2 26474  67.9877 147.9612 0045542 296.9154  62.7346 15.10140925406461
ENVISAT                 
1 27386U 02009A   26158.31801014  .00000118  00000+0  52019-4 0  9997
2 27386  98.3831 109.8569 0001342  91.0289  30.3146 14.39062585272064
IDEFIX & ARIANE 42P R/B 
1 27422U 02021B   26158.27123904  .00000266  00000+0  11776-3 0  9990
2 27422  98.5941  95.8619 0010626 286.3315  73.6699 14.31077674256830
AQUA                    
1 27424U 02022A   26158.48211218  .00000956  00000+0  19988-3 0  9991
2 27424  98.4272 127.5715 0001487  54.6851  51.3936 14.62144003281856
CZ-4B R/B               
1 27432U 02024C   26158.39867784  .00000057  00000+0  51966-4 0  9992
2 27432  98.8703 211.2818 0051036 127.4799 243.6713 14.14562885241920
MIDORI II (ADEOS-II)    
1 27597U 02056A   26158.12782017  .00000282  00000+0  12835-3 0  9996
2 27597  98.7874 117.3024 0002211  90.7184 269.4250 14.29344099223075
H-2A R/B                
1 27601U 02056E   26158.16231471  .00000209  00000+0  88217-4 0  9996
2 27601  98.3308 115.2024 0068867 254.8968 114.8527 14.33817754226934
CZ-4B R/B               
1 28059U 03049C   26158.26048745  .00000375  00000+0  97493-4 0  9998
2 28059  98.6896 156.7119 0047325 319.5348  40.2331 14.55093659199623
CZ-2C R/B               
1 28222U 04012C   26158.45830566  .00096149  00000+0  58455-3 0  9990
2 28222  97.7088 233.0048 0008750 327.4438  32.6287 15.77152818218361
SL-16 R/B               
1 28353U 04021B   26158.40303682 -.00000198  00000+0 -78126-4 0  9993
2 28353  71.0022  44.2234 0007494 265.9388  94.0878 14.14612488135520
CZ-4B R/B               
1 28415U 04035C   26157.67214398  .00009079  00000+0  30615-3 0  9995
2 28415  97.3371 190.8652 0031237  15.7592 344.4614 15.30469234193510
CZ-2C R/B               
1 28480U 04046B   26158.51538522  .00000102  00000+0  53640-4 0  9993
2 28480  98.1951  67.9000 0138121 249.0800 109.5552 14.27024590121317
ARIANE 5 R/B            
1 28499U 04049H   26158.29563492  .00000922  00000+0  10725-3 0  9991
2 28499  98.2717 330.1673 0085044  61.1544 299.8172 14.85435702159094
CZ-2D R/B               
1 28738U 05024B   26158.01501285  .00059290  00000+0  52442-3 0  9997
2 28738  97.3493 176.9434 0004992  75.4814 284.7001 15.68453808153742
ALOS (DAICHI)           
1 28931U 06002A   26158.15286279  .00001121  00000+0  19514-3 0  9990
2 28931  98.1319 113.7519 0001833  62.5114 297.6278 14.70029969 86627
H-2A R/B                
1 28932U 06002B   26158.16695303  .00007330  00000+0  35369-3 0  9998
2 28932  98.2561 313.0915 0049715 297.2323  62.3847 15.17938457108002
RESURS-DK 1             
1 29228U 06021A   26158.31804964  .00002792  00000+0  16303-3 0  9994
2 29228  69.9339   5.0995 0006372 299.9640  60.0893 15.13173709101082
CZ-4B R/B               
1 29507U 06046C   26158.36353259  .00004387  00000+0  21833-3 0  9998
2 29507  97.5455 203.0011 0031464 318.5567  41.3280 15.17711887 73644
CZ-2C R/B               
1 31114U 07010B   26158.26758362  .00000120  00000+0  73998-4 0  9991
2 31114  98.4090 267.1043 0059595  34.8168 325.6887 14.20274014992439
