OBJECT_NAME,OBJECT_ID,EPOCH,MEAN_MOTION,ECCENTRICITY,INCLINATION,RA_OF_ASC_NODE,ARG_OF_PERICENTER,MEAN_ANOMALY,EPHEMERIS_TYPE,CLASSIFICATION_TYPE,NORAD_CAT_ID,ELEMENT_SET_NO,REV_AT_EPOCH,BSTAR,MEAN_MOTION_DOT,MEAN_MOTION_DDOT
SL-16 R/B,1996-051B,2026-06-06T18:18:00.269568,14.12442526,.00145707,70.7634,346.7124,352.8339,7.2570,0,U,24298,999,53422,.97895818E-4,.132E-5,0
ORBVIEW 2 (SEASTAR),1997-037A,2026-06-07T04:37:00.582240,14.35548493,.0002879,98.8681,324.9351,137.3069,222.8340,0,U,24883,999,52131,.11983E-3,.298E-5,0
SL-16 R/B,1998-043G,2026-06-07T02:51:38.919744,14.26066905,.0010834,98.8359,112.1921,112.6352,247.5974,0,U,25400,999,45173,.42047E-4,.55E-6,0
SL-16 R/B,1998-045B,2026-06-07T06:38:29.992128,14.16204543,.0009533,71.0120,353.1723,253.4534,106.5543,0,U,25407,999,43978,.679E-4,.87E-6,0
ISS (ZARYA),1998-067A,2026-06-07T07:42:05.455008,15.49651405,.0006961,51.6340,348.9335,143.5924,216.5539,0,U,25544,999,57022,.16649E-3,.8946E-4,0
CZ-4B R/B,1999-025C,2026-06-07T09:25:32.416320,14.18281862,.0038265,98.6488,200.4774,87.0003,284.2739,0,U,25732,999,40088,.46115E-4,.53E-6,0
OKEAN-O,1999-039A,2026-06-07T09:53:31.203744,14.80456177,.0001843,97.9319,217.3219,78.8725,281.2694,0,U,25860,999,44766,.10492E-3,.75E-5,0
SL-16 R/B,1999-039B,2026-06-07T04:09:02.816064,14.81835746,.0014054,97.9841,217.0640,332.0055,28.0401,0,U,25861,999,45011,.81259E-4,.589E-5,0
DELTA 2 R/B,1999-041E,2026-06-07T02:59:30.870240,14.11997656,.0500965,51.7662,303.9918,252.2696,102.2970,0,U,25876,999,37566,.15964E-3,.758E-5,0
HELIOS 1B,1999-064A,2026-06-07T11:53:12.230016,14.87982214,.0002318,98.1623,63.3545,105.5165,254.6307,0,U,25977,999,69861,.20061E-3,.1782E-4,0
TERRA,1999-068A,2026-06-07T10:05:19.199904,14.61095687,.0000899,97.9460,208.3535,238.3915,132.2520,0,U,25994,999,40818,.10279E-3,.461E-5,0
SL-16 R/B,2000-006B,2026-06-07T00:47:12.790752,14.15836990,.0015027,71.0034,269.9757,39.0990,321.1216,0,U,26070,999,36120,-.6381E-4,-.173E-5,0
TITAN 4B R/B,2000-047B,2026-06-07T10:57:40.164768,15.10140925,.0045542,67.9877,147.9612,296.9154,62.7346,0,U,26474,999,40646,.21889E-3,.3528E-4,0
ENVISAT,2002-009A,2026-06-07T07:37:56.076096,14.39062585,.0001342,98.3831,109.8569,91.0289,30.3146,0,U,27386,999,27206,.52019E-4,.118E-5,0
IDEFIX & ARIANE 42P R/B,2002-021B,2026-06-07T06:30:35.053056,14.31077674,.0010626,98.5941,95.8619,286.3315,73.6699,0,U,27422,999,25683,.11776E-3,.266E-5,0
AQUA,2002-022A,2026-06-07T11:34:14.492352,14.62144003,.0001487,98.4272,127.5715,54.6851,51.3936,0,U,27424,999,28185,.19988E-3,.956E-5,0
CZ-4B R/B,2002-024C,2026-06-07T09:34:05.765376,14.14562885,.0051036,98.8703,211.2818,127.4799,243.6713,0,U,27432,999,24192,.51966E-4,.57E-6,0
MIDORI II (ADEOS-II),2002-056A,2026-06-07T03:04:03.662688,14.29344099,.0002211,98.7874,117.3024,90.7184,269.4250,0,U,27597,999,22307,.12835E-3,.282E-5,0
H-2A R/B,2002-056E,2026-06-07T03:53:43.990944,14.33817754,.0068867,98.3308,115.2024,254.8968,114.8527,0,U,27601,999,22693,.88217E-4,.209E-5,0
CZ-4B R/B,2003-049C,2026-06-07T06:15:06.115680,14.55093659,.0047325,98.6896,156.7119,319.5348,40.2331,0,U,28059,999,19962,.97493E-4,.375E-5,0
CZ-2C R/B,2004-012C,2026-06-07T10:59:57.609024,15.77152818,.000875,97.7088,233.0048,327.4438,32.6287,0,U,28222,999,21836,.58455E-3,.96149E-3,0
SL-16 R/B,2004-021B,2026-06-07T09:40:22.381248,14.14612488,.0007494,71.0022,44.2234,265.9388,94.0878,0,U,28353,999,13552,-.78126E-4,-.198E-5,0
CZ-4B R/B,2004-035C,2026-06-06T16:07:53.239872,15.30469234,.0031237,97.3371,190.8652,15.7592,344.4614,0,U,28415,999,19351,.30615E-3,.9079E-4,0
CZ-2C R/B,2004-046B,2026-06-07T12:22:09.283008,14.27024590,.0138121,98.1951,67.9000,249.0800,109.5552,0,U,28480,999,12131,.5364E-4,.102E-5,0
ARIANE 5 R/B,2004-049H,2026-06-07T07:05:42.857088,14.85435702,.0085044,98.2717,330.1673,61.1544,299.8172,0,U,28499,999,15909,.10725E-3,.922E-5,0
CZ-2D R/B,2005-024B,2026-06-07T00:21:37.110240,15.68453808,.0004992,97.3493,176.9434,75.4814,284.7001,0,U,28738,999,15374,.52442E-3,.5929E-3,0
ALOS (DAICHI),2006-002A,2026-06-07T03:40:07.345056,14.70029969,.0001833,98.1319,113.7519,62.5114,297.6278,0,U,28931,999,8662,.19514E-3,.1121E-4,0
H-2A R/B,2006-002B,2026-06-07T04:00:24.741792,15.17938457,.0049715,98.2561,313.0915,297.2323,62.3847,0,U,28932,999,10800,.35369E-3,.733E-4,0
RESURS-DK 1,2006-021A,2026-06-07T07:37:59.488896,15.13173709,.0006372,69.9339,5.0995,299.9640,60.0893,0,U,29228,999,10108,.16303E-3,.2792E-4,0
CZ-4B R/B,2006-046C,2026-06-07T08:43:29.215776,15.17711887,.0031464,97.5455,203.0011,318.5567,41.3280,0,U,29507,999,7364,.21833E-3,.4387E-4,0
CZ-2C R/B,2007-010B,2026-06-07T06:25:19.224768,14.20274014,.0059595,98.4090,267.1043,34.8168,325.6887,0,U,31114,999,99243,.73998E-4,.12E-5,0
